{
  "number": 1052,
  "questionId": "050-1052",
  "questionNumber": "050-1052",
  "stemHtml": "<p>EGNM 030502Z 0306/0406 15008KT 9999 FEW045 PROB30 TEMPO 0306/0308 8000 BECMG 0318/0321 -RA BKN014 TEMPO 0400/0406 4000 RADZ BKN004=</p>\r\n\r\n<p>What are the expected conditions of visibility for an aircraft arrival time of 04th 0030 UTC?</p>",
  "options": {
    "a": "10 km or more with temporary reductions to 8 km and 4 000 m.",
    "b": "10 km or more with temporary reductions to 4 000 m.",
    "c": "8 km becomes 4 000 metres.",
    "d": "4 000 metres."
  },
  "correctOption": "b",
  "attachments": []
}
