{
  "number": 1073,
  "questionId": "050-1073",
  "questionNumber": "050-1073",
  "stemHtml": "<p>171020Z 21005KT 9000 FEW030TCU FEW033CB SCT040 BKN100 19/18 Q1005 TEMPO 25015G25KT 3000 TSRA SCT005 BKN015CB.</p>\n\n<p>What is the conclusion for a pilot flying in the weather mentioned in the message above?</p>",
  "options": {
    "a": "Passage under the thunderstorms with this base is safe.",
    "b": "There are thunderstorms present that should be avoided.",
    "c": "Caution is needed for rain showers developing in the next three hours.",
    "d": "The CB clouds are in the vicinity and do not require action by the pilot."
  },
  "correctOption": "b",
  "attachments": []
}
