{
  "number": 1239,
  "questionId": "050-1239",
  "questionNumber": "050-1239",
  "stemHtml": "<p>Refer to the following METAR: </p><p>LFPG 161250Z 27015KT 9999 SCT016 OVC024 M09/M12 Q1006 NOSIG</p><p>What is correct about the wind?</p>",
  "options": {
    "a": "<p>270\u00b0(M) / 15 km/h</p>",
    "b": "270\u00b0(T) / 15 km/h",
    "c": "<p>270\u00b0(M) / 15 kt</p>",
    "d": "270\u00b0(T) / 15 kt"
  },
  "correctOption": "d",
  "attachments": []
}
