{
  "number": 1338,
  "questionId": "050-1338",
  "questionNumber": "050-1338",
  "stemHtml": "<p>What is the lowest cloud base forecast for arrival at Geneva (ETA 12:00 UTC)?</p>\n\n<p><span style=\"letter-spacing:0.7px\">TAF LSGG 020900Z 0210/0219 18007KT 9999 SCT020 BKN100 BECMG 0211/0214 RA SCT010 OVC020 PROB30 TEMPO 0211/0218 VRB10G25KT TSRA SCT005 BKN015CB=</span></p>",
  "options": {
    "a": "1000 m",
    "b": "1000 ft",
    "c": "500 ft",
    "d": "500 m"
  },
  "correctOption": "c",
  "attachments": []
}
