{
  "number": 1432,
  "questionId": "050-1432",
  "questionNumber": "050-1432",
  "stemHtml": "<p>Refer to figure. <br /> \rAt which airport is the following weather development taking place?</p>\r\r<p>TAF 231200Z 2313/2322 24014G32KT 4000 +TSRA SCT005 BKN015 BKN020CB BECMG 2314/2316 29012KT 9999 BKN030TCU SCT100 TEMPO 2316/2319 SHRA=</p>",
  "options": {
    "a": "<p>EINN</p>",
    "b": "<p>ESSA</p>",
    "c": "<p>EKCH</p>",
    "d": "<p>LSZH</p>"
  },
  "correctOption": "a",
  "attachments": [
    {
      "uniqueKey": "050-att-0232",
      "publicUrl": "/attachments/050/050-att-0232.jpeg"
    }
  ]
}
