{
  "number": 1560,
  "questionId": "050-1560",
  "questionNumber": "050-1560",
  "stemHtml": "<p>What is the lowest cloud base that can be expected from the forecast for 15:00 UTC?</p>\n\n<p><span style=\"letter-spacing:0.7px\">KCHS 280430Z 2806/2906 VRB05KT 4000 BR SCT005 OVC013 BECMG 2813/2814 9000 SHRA OVC015 PROB40 TEMPO 2814/2816 VRB15G25KT 1600 TSRA OVC010CB BECMG 2816/2818 26010KT BECMG 2821/2822 CAVOK=</span></p>",
  "options": {
    "a": "1500 feet",
    "b": "1300 feet",
    "c": "1000 feet",
    "d": "3000 feet"
  },
  "correctOption": "c",
  "attachments": []
}
