{
  "number": 1793,
  "questionId": "050-1793",
  "questionNumber": "050-1793",
  "stemHtml": "EGBB 251450Z 30029G39KT 8000 2000W SCT010CB BKN020 09/06 Q1005= <br /> Suddenly, lightning is observed from one of the CB clouds just over the airfield and a loud rumble follows. What is the correct action to be performed by the ATS unit?",
  "options": {
    "a": "Issue a SPECI.",
    "b": "No action required.",
    "c": "Issue an AIREP.",
    "d": "Issue a windshear warning."
  },
  "correctOption": "a",
  "attachments": []
}
