{
  "number": 2099,
  "questionId": "050-2099",
  "questionNumber": "050-2099",
  "stemHtml": "Considering the TAF below, at what time should the pilot land if he/she wants winds of less than 20 kt? <br />  <br /> TAF EGGW 091655Z 0918/1018 20022G29KT 9999 SCT030 PROB40 TEMPO 0918/0922 29028G37KT BECMG 0922/0923 24015KT 6000 SHRA",
  "options": {
    "a": "16:55 UTC",
    "b": "16:55 LT",
    "c": "23:30 UTC",
    "d": "21:00 UTC"
  },
  "correctOption": "c",
  "attachments": []
}
