{
  "number": 2523,
  "questionId": "050-2523",
  "questionNumber": "050-2523",
  "stemHtml": "<p>What lowest cloud base is most likely to be experienced during an approach into Madrid at 23:00 UTC?</p>\n\n<p><span style=\"letter-spacing:0.7px\">TAF LEMD 281200Z 2818/2912 13005KT CAVOK TEMPO 2818/2821 8000 SCT020 SCT030 BECMG 2821/2823 21005KT 9999 SCT015 BKN080 PROB40 TEMPO 2823/2906 6000 SCT008=</span></p>",
  "options": {
    "a": "800 feet",
    "b": "2000 feet",
    "c": "3000 feet",
    "d": "1500 feet"
  },
  "correctOption": "d",
  "attachments": []
}
