{
  "number": 329,
  "questionId": "090-0329",
  "questionNumber": "090-0329",
  "stemHtml": "LSGG 241420Z 21001KT 2200 SN FEW003 BKN010 01/00 Q1020 BLSN Which of the following statements is correct?",
  "options": {
    "a": "Visibility 2200 meters, QNH 1020, blowing snow.",
    "b": "Wind direction 210 degrees true and speed of 10 knots, QNH 1020.",
    "c": "Visibility 2200 meters, broken 10000 FT, QFE 1020.",
    "d": "Wind direction 210 degrees magnetic and speed of 10 knots, QFE 1020."
  },
  "correctOption": "a",
  "attachments": []
}
