{
  "number": 783,
  "questionId": "090-0783",
  "questionNumber": "090-0783",
  "stemHtml": "<p>Which of the following correctly translates data from the METAR of Lisbon aerodrome given below?<br>LPPT 150505Z 11006KT 9999 BKN016 M09/M16 Q1006 NOSIG =</p>",
  "options": {
    "a": "Temperature is 16 degrees below ISA, visibility is at least 10 km, QNH is 1006 hPa",
    "b": "Report time is 05:05 UTC, dew point is minus 16\u00b0C, QNH is 1006 hPa",
    "c": "Wind comes from 110 degrees true, QNH is 9 hPa less than ISA, no significant changes forecast",
    "d": "<p>The temperature is minus 9\u00b0C, report time is 15:05 PM, clouds are 5-7/8 at 1600 ft</p>"
  },
  "correctOption": "b",
  "attachments": []
}
