{
  "number": 842,
  "questionId": "090-0842",
  "questionNumber": "090-0842",
  "stemHtml": "<p>The following is a METAR: EGLL 080120Z 21010KT 9999 SCT030 07/04 Q1023 NOSIG=</p><p>The wind is reported as...</p>",
  "options": {
    "a": "<div>wind direction 210 degrees true and speed of 10 knots.</div>",
    "b": "<div>wind direction 210 degrees magnetic and speed of 10 knots.</div>",
    "c": "<div>wind direction 210 degrees true and speed of 10 statute miles per hour.</div>",
    "d": "wind direction 210 degrees magnetic and speed of 10 statute miles per hour.<br>"
  },
  "correctOption": "a",
  "attachments": []
}
