{
  "number": 981,
  "questionId": "090-0981",
  "questionNumber": "090-0981",
  "stemHtml": "<p>According to the following METAR:</p><p>LSGG 241420Z 21001KT 2200 SN FEW003 BKN030 01/00 Q1020</p><p>Which of the following statements are correct?</p><p>1) Few clouds with a base at 300 ft AGL\u00a0<br>2) Few clouds with a base at 3000 ft ASL\u00a0<br>3) Scattered clouds with a base at 1000 ft AGL\u00a0<br>4) Moderate snow is falling</p>",
  "options": {
    "a": "<p>1 and 3</p>",
    "b": "<p>2 and 3</p>",
    "c": "<p>1 and 4</p>",
    "d": "<p>3 and 4</p>"
  },
  "correctOption": "c",
  "attachments": []
}
